start=new Date('2021-10-04T00:00:00.000Z').valueOf();
sats=[{"REV_AT_EPOCH":"3274","RCS_SIZE":"LARGE","COUNTRY_CODE":"US","EPHEMERIS_TYPE":"0","OBJECT_NAME":"STARLINK-2408","ECCENTRICITY":"0.00012120","PERIOD":"95.592","SITE":"AFETR","CENTER_NAME":"EARTH","NORAD_CAT_ID":"47823","OBJECT_TYPE":"PAYLOAD","MEAN_ANOMALY":"283.4221","FILE":"3143202","TLE_LINE1":"1 47823U 21018AN  21276.79828614  .00000281  00000-0  37780-4 0  9999","SEMIMAJOR_AXIS":"6925.347","MEAN_MOTION":"15.06400576","REF_FRAME":"TEME","ELEMENT_SET_NO":"999","EPOCH":"2021-10-03T19:09:31.922496","OBJECT_ID":"2021-018AN","GP_ID":"186143176","APOAPSIS":"548.051","RA_OF_ASC_NODE":"314.6134","ARG_OF_PERICENTER":"76.6903","DECAY_DATE":null,"LAUNCH_DATE":"2021-03-11","TLE_LINE2":"2 47823  53.0560 314.6134 0001212  76.6903 283.4221 15.06400576 32746","MEAN_MOTION_DOT":"0.00000281","PERIAPSIS":"546.372","MEAN_ELEMENT_THEORY":"SGP4","INCLINATION":"53.0560","TIME_SYSTEM":"UTC","BSTAR":"0.00003778000000","MEAN_MOTION_DDOT":"0.0000000000000","CLASSIFICATION_TYPE":"U"},{"GP_ID":"186101666","ARG_OF_PERICENTER":"74.7822","APOAPSIS":"548.105","RA_OF_ASC_NODE":"315.8699","DECAY_DATE":null,"LAUNCH_DATE":"2021-03-11","TLE_LINE2":"2 47824  53.0545 315.8699 0001277  74.7822 285.3308 15.06397794 32697","MEAN_MOTION_DOT":"-0.00000072","MEAN_ELEMENT_THEORY":"SGP4","PERIAPSIS":"546.336","MEAN_MOTION_DDOT":"0.0000000000000","BSTAR":"0.00001408800000","INCLINATION":"53.0545","TIME_SYSTEM":"UTC","CLASSIFICATION_TYPE":"U","RCS_SIZE":"LARGE","REV_AT_EPOCH":"3269","COUNTRY_CODE":"US","EPHEMERIS_TYPE":"0","OBJECT_NAME":"STARLINK-2409","ECCENTRICITY":"0.00012770","NORAD_CAT_ID":"47824","OBJECT_TYPE":"PAYLOAD","PERIOD":"95.592","CENTER_NAME":"EARTH","SITE":"AFETR","MEAN_ANOMALY":"285.3308","SEMIMAJOR_AXIS":"6925.355","MEAN_MOTION":"15.06397794","TLE_LINE1":"1 47824U 21018AP  21276.52184037 -.00000072  00000-0  14088-4 0  9990","FILE":"3142499","ELEMENT_SET_NO":"999","REF_FRAME":"TEME","EPOCH":"2021-10-03T12:31:27.007968","OBJECT_ID":"2021-018AP"},{"REF_FRAME":"TEME","ELEMENT_SET_NO":"999","EPOCH":"2021-10-03T19:20:09.780000","OBJECT_ID":"2021-018AQ","MEAN_ANOMALY":"269.3653","TLE_LINE1":"1 47825U 21018AQ  21276.80566875 -.00001264  00000-0 -65974-4 0  9991","FILE":"3143202","SEMIMAJOR_AXIS":"6925.388","MEAN_MOTION":"15.06387092","ECCENTRICITY":"0.00012360","PERIOD":"95.593","CENTER_NAME":"EARTH","SITE":"AFETR","NORAD_CAT_ID":"47825","OBJECT_TYPE":"PAYLOAD","REV_AT_EPOCH":"3274","RCS_SIZE":"LARGE","COUNTRY_CODE":"US","EPHEMERIS_TYPE":"0","OBJECT_NAME":"STARLINK-2410","INCLINATION":"53.0545","TIME_SYSTEM":"UTC","MEAN_MOTION_DDOT":"0.0000000000000","BSTAR":"-0.00006597400000","CLASSIFICATION_TYPE":"U","TLE_LINE2":"2 47825  53.0545 314.5675 0001236  90.7477 269.3653 15.06387092 32748","LAUNCH_DATE":"2021-03-11","MEAN_MOTION_DOT":"-0.00001264","PERIAPSIS":"546.397","MEAN_ELEMENT_THEORY":"SGP4","DECAY_DATE":null,"GP_ID":"186142174","APOAPSIS":"548.109","RA_OF_ASC_NODE":"314.5675","ARG_OF_PERICENTER":"90.7477"},{"DECAY_DATE":null,"ARG_OF_PERICENTER":"72.7695","APOAPSIS":"548.050","RA_OF_ASC_NODE":"314.5991","GP_ID":"186142439","CLASSIFICATION_TYPE":"U","BSTAR":"0.00000632700000","MEAN_MOTION_DDOT":"0.0000000000000","TIME_SYSTEM":"UTC","INCLINATION":"53.0554","MEAN_ELEMENT_THEORY":"SGP4","PERIAPSIS":"546.379","MEAN_MOTION_DOT":"-0.00000187","TLE_LINE2":"2 47826  53.0554 314.5991 0001207  72.7695 287.3426 15.06399727 32746","LAUNCH_DATE":"2021-03-11","OBJECT_TYPE":"PAYLOAD","NORAD_CAT_ID":"47826","SITE":"AFETR","CENTER_NAME":"EARTH","PERIOD":"95.592","ECCENTRICITY":"0.00012070","OBJECT_NAME":"STARLINK-2411","EPHEMERIS_TYPE":"0","COUNTRY_CODE":"US","RCS_SIZE":"LARGE","REV_AT_EPOCH":"3274","OBJECT_ID":"2021-018AR","EPOCH":"2021-10-03T19:14:50.304768","ELEMENT_SET_NO":"999","REF_FRAME":"TEME","MEAN_MOTION":"15.06399727","SEMIMAJOR_AXIS":"6925.349","FILE":"3143202","TLE_LINE1":"1 47826U 21018AR  21276.80197112 -.00000187  00000-0  63270-5 0  9996","MEAN_ANOMALY":"287.3426"},{"MEAN_ANOMALY":"277.8626","MEAN_MOTION":"15.06395784","SEMIMAJOR_AXIS":"6925.361","TLE_LINE1":"1 47827U 21018AS  21276.56237246  .00000547  00000-0  55629-4 0  9990","FILE":"3143202","ELEMENT_SET_NO":"999","REF_FRAME":"TEME","OBJECT_ID":"2021-018AS","EPOCH":"2021-10-03T13:29:48.980544","RCS_SIZE":"LARGE","REV_AT_EPOCH":"3290","OBJECT_NAME":"STARLINK-2413","EPHEMERIS_TYPE":"0","COUNTRY_CODE":"US","ECCENTRICITY":"0.00011520","OBJECT_TYPE":"PAYLOAD","NORAD_CAT_ID":"47827","CENTER_NAME":"EARTH","SITE":"AFETR","PERIOD":"95.592","MEAN_MOTION_DOT":"0.00000547","LAUNCH_DATE":"2021-03-11","TLE_LINE2":"2 47827  53.0571 305.6717 0001152  82.2494 277.8626 15.06395784 32908","MEAN_ELEMENT_THEORY":"SGP4","PERIAPSIS":"546.429","BSTAR":"0.00005562900000","MEAN_MOTION_DDOT":"0.0000000000000","TIME_SYSTEM":"UTC","INCLINATION":"53.0571","CLASSIFICATION_TYPE":"U","GP_ID":"186142690","ARG_OF_PERICENTER":"82.2494","APOAPSIS":"548.024","RA_OF_ASC_NODE":"305.6717","DECAY_DATE":null},{"DECAY_DATE":null,"APOAPSIS":"548.135","RA_OF_ASC_NODE":"324.3687","ARG_OF_PERICENTER":"86.5405","GP_ID":"186141438","CLASSIFICATION_TYPE":"U","INCLINATION":"53.0565","TIME_SYSTEM":"UTC","BSTAR":"0.00003820500000","MEAN_MOTION_DDOT":"0.0000000000000","PERIAPSIS":"546.334","MEAN_ELEMENT_THEORY":"SGP4","LAUNCH_DATE":"2021-03-11","TLE_LINE2":"2 47828  53.0565 324.3687 0001300  86.5405 273.5733 15.06393084 32611","MEAN_MOTION_DOT":"0.00000288","PERIOD":"95.593","CENTER_NAME":"EARTH","SITE":"AFETR","NORAD_CAT_ID":"47828","OBJECT_TYPE":"PAYLOAD","ECCENTRICITY":"0.00013000","COUNTRY_CODE":"US","EPHEMERIS_TYPE":"0","OBJECT_NAME":"STARLINK-2415","REV_AT_EPOCH":"3261","RCS_SIZE":"LARGE","EPOCH":"2021-10-03T20:27:50.248224","OBJECT_ID":"2021-018AT","REF_FRAME":"TEME","ELEMENT_SET_NO":"999","TLE_LINE1":"1 47828U 21018AT  21276.85266491  .00000288  00000-0  38205-4 0  9990","FILE":"3143202","SEMIMAJOR_AXIS":"6925.370","MEAN_MOTION":"15.06393084","MEAN_ANOMALY":"273.5733"},{"MEAN_ANOMALY":"266.9999","SEMIMAJOR_AXIS":"6925.364","MEAN_MOTION":"15.06394959","FILE":"3143202","TLE_LINE1":"1 47829U 21018AU  21276.53935357  .00000339  00000-0  41626-4 0  9998","ELEMENT_SET_NO":"999","REF_FRAME":"TEME","EPOCH":"2021-10-03T12:56:40.148448","OBJECT_ID":"2021-018AU","RCS_SIZE":"LARGE","REV_AT_EPOCH":"3255","EPHEMERIS_TYPE":"0","COUNTRY_CODE":"US","OBJECT_NAME":"STARLINK-2416","ECCENTRICITY":"0.00011400","NORAD_CAT_ID":"47829","OBJECT_TYPE":"PAYLOAD","PERIOD":"95.592","CENTER_NAME":"EARTH","SITE":"AFETR","TLE_LINE2":"2 47829  53.0564 325.7792 0001140  93.1120 266.9999 15.06394959 32558","LAUNCH_DATE":"2021-03-11","MEAN_MOTION_DOT":"0.00000339","MEAN_ELEMENT_THEORY":"SGP4","PERIAPSIS":"546.440","BSTAR":"0.00004162600000","MEAN_MOTION_DDOT":"0.0000000000000","INCLINATION":"53.0564","TIME_SYSTEM":"UTC","CLASSIFICATION_TYPE":"U","GP_ID":"186141688","ARG_OF_PERICENTER":"93.1120","RA_OF_ASC_NODE":"325.7792","APOAPSIS":"548.018","DECAY_DATE":null},{"PERIAPSIS":"546.410","MEAN_ELEMENT_THEORY":"SGP4","TLE_LINE2":"2 47830  53.0571 325.7917 0001168  89.3124 270.7999 15.06398102 32555","LAUNCH_DATE":"2021-03-11","MEAN_MOTION_DOT":"0.00001670","CLASSIFICATION_TYPE":"U","INCLINATION":"53.0571","TIME_SYSTEM":"UTC","MEAN_MOTION_DDOT":"0.0000000000000","BSTAR":"0.00013097000000","APOAPSIS":"548.028","RA_OF_ASC_NODE":"325.7917","ARG_OF_PERICENTER":"89.3124","GP_ID":"186102669","DECAY_DATE":null,"FILE":"3142499","TLE_LINE1":"1 47830U 21018AV  21276.53567270  .00001670  00000-0  13097-3 0  9994","SEMIMAJOR_AXIS":"6925.354","MEAN_MOTION":"15.06398102","MEAN_ANOMALY":"270.7999","EPOCH":"2021-10-03T12:51:22.121280","OBJECT_ID":"2021-018AV","REF_FRAME":"TEME","ELEMENT_SET_NO":"999","EPHEMERIS_TYPE":"0","COUNTRY_CODE":"US","OBJECT_NAME":"STARLINK-2419","REV_AT_EPOCH":"3255","RCS_SIZE":"LARGE","PERIOD":"95.592","SITE":"AFETR","CENTER_NAME":"EARTH","NORAD_CAT_ID":"47830","OBJECT_TYPE":"PAYLOAD","ECCENTRICITY":"0.00011680"},{"INCLINATION":"53.0523","TIME_SYSTEM":"UTC","BSTAR":"0.00001184700000","MEAN_MOTION_DDOT":"0.0000000000000","CLASSIFICATION_TYPE":"U","TLE_LINE2":"2 47831  53.0523 299.5656 0000854  91.7555 268.3532 15.06394030 33000","LAUNCH_DATE":"2021-03-11","MEAN_MOTION_DOT":"-0.00000105","PERIAPSIS":"546.640","MEAN_ELEMENT_THEORY":"SGP4","DECAY_DATE":null,"GP_ID":"186143177","APOAPSIS":"547.823","RA_OF_ASC_NODE":"299.5656","ARG_OF_PERICENTER":"91.7555","REF_FRAME":"TEME","ELEMENT_SET_NO":"999","EPOCH":"2021-10-03T19:23:26.621664","OBJECT_ID":"2021-018AW","MEAN_ANOMALY":"268.3532","FILE":"3143202","TLE_LINE1":"1 47831U 21018AW  21276.80794701 -.00000105  00000-0  11847-4 0  9991","SEMIMAJOR_AXIS":"6925.367","MEAN_MOTION":"15.06394030","ECCENTRICITY":"0.00008540","PERIOD":"95.593","SITE":"AFETR","CENTER_NAME":"EARTH","NORAD_CAT_ID":"47831","OBJECT_TYPE":"PAYLOAD","REV_AT_EPOCH":"3300","RCS_SIZE":"LARGE","EPHEMERIS_TYPE":"0","COUNTRY_CODE":"US","OBJECT_NAME":"STARLINK-2420"},{"MEAN_ANOMALY":"273.9208","MEAN_MOTION":"15.06394042","SEMIMAJOR_AXIS":"6925.367","TLE_LINE1":"1 47832U 21018AX  21276.82409505 -.00000047  00000-0  15729-4 0  9997","FILE":"3143202","ELEMENT_SET_NO":"999","REF_FRAME":"TEME","OBJECT_ID":"2021-018AX","EPOCH":"2021-10-03T19:46:41.812320","RCS_SIZE":"LARGE","REV_AT_EPOCH":"3274","OBJECT_NAME":"STARLINK-2422","COUNTRY_CODE":"US","EPHEMERIS_TYPE":"0","ECCENTRICITY":"0.00014500","OBJECT_TYPE":"PAYLOAD","NORAD_CAT_ID":"47832","CENTER_NAME":"EARTH","SITE":"AFETR","PERIOD":"95.593","MEAN_MOTION_DOT":"-0.00000047","LAUNCH_DATE":"2021-03-11","TLE_LINE2":"2 47832  53.0558 314.4980 0001450  86.1946 273.9208 15.06394042 32746","MEAN_ELEMENT_THEORY":"SGP4","PERIAPSIS":"546.228","BSTAR":"0.00001572900000","MEAN_MOTION_DDOT":"0.0000000000000","TIME_SYSTEM":"UTC","INCLINATION":"53.0558","CLASSIFICATION_TYPE":"U","GP_ID":"186141925","ARG_OF_PERICENTER":"86.1946","RA_OF_ASC_NODE":"314.4980","APOAPSIS":"548.236","DECAY_DATE":null}];
